[{"OBJECT_NAME":"STARLINK-11733 [DTC]","OBJECT_ID":"2025-107J","EPOCH":"2026-03-09T18:49:56.157600","MEAN_MOTION":15.7086041,"ECCENTRICITY":1.084e-5,"INCLINATION":42.999,"RA_OF_ASC_NODE":97.6008,"ARG_OF_PERICENTER":58.976,"MEAN_ANOMALY":301.1118,"EPHEMERIS_TYPE":0,"CLASSIFICATION_TYPE":"U","NORAD_CAT_ID":64072,"ELEMENT_SET_NO":999,"REV_AT_EPOCH":4731,"BSTAR":0.0016876976,"MEAN_MOTION_DOT":0.00222194,"MEAN_MOTION_DDOT":0},{"OBJECT_NAME":"COSMOS 1408 DEB","OBJECT_ID":"1982-092SW","EPOCH":"2026-03-09T18:18:30.050784","MEAN_MOTION":15.71290453,"ECCENTRICITY":0.00149584,"INCLINATION":82.612,"RA_OF_ASC_NODE":337.7981,"ARG_OF_PERICENTER":124.2456,"MEAN_ANOMALY":236.0226,"EPHEMERIS_TYPE":0,"CLASSIFICATION_TYPE":"U","NORAD_CAT_ID":50058,"ELEMENT_SET_NO":999,"REV_AT_EPOCH":24167,"BSTAR":0.00037213581,"MEAN_MOTION_DOT":0.00047626,"MEAN_MOTION_DDOT":0}]
